[{"OBJECT_NAME":"STARLINK-3899","OBJECT_ID":"2022-049G","EPOCH":"2025-11-23T01:07:42.597120","MEAN_MOTION":15.08828945,"ECCENTRICITY":0.0001842,"INCLINATION":53.2162,"RA_OF_ASC_NODE":187.8462,"ARG_OF_PERICENTER":93.7171,"MEAN_ANOMALY":266.4032,"EPHEMERIS_TYPE":0,"CLASSIFICATION_TYPE":"U","NORAD_CAT_ID":52457,"ELEMENT_SET_NO":999,"REV_AT_EPOCH":19601,"BSTAR":-5.0676e-5,"MEAN_MOTION_DOT":-1.094e-5,"MEAN_MOTION_DDOT":0},{"OBJECT_NAME":"STARLINK-3898","OBJECT_ID":"2022-049H","EPOCH":"2025-11-23T01:03:46.827936","MEAN_MOTION":15.08833291,"ECCENTRICITY":0.0001109,"INCLINATION":53.2163,"RA_OF_ASC_NODE":187.873,"ARG_OF_PERICENTER":88.1043,"MEAN_ANOMALY":272.0076,"EPHEMERIS_TYPE":0,"CLASSIFICATION_TYPE":"U","NORAD_CAT_ID":52458,"ELEMENT_SET_NO":999,"REV_AT_EPOCH":19601,"BSTAR":-5.8288e-5,"MEAN_MOTION_DOT":-1.215e-5,"MEAN_MOTION_DDOT":0},{"OBJECT_NAME":"STARLINK-3856","OBJECT_ID":"2022-049J","EPOCH":"2025-11-22T23:07:07.106016","MEAN_MOTION":15.0890128,"ECCENTRICITY":0.0001383,"INCLINATION":53.2157,"RA_OF_ASC_NODE":178.233,"ARG_OF_PERICENTER":80.8741,"MEAN_ANOMALY":279.2407,"EPHEMERIS_TYPE":0,"CLASSIFICATION_TYPE":"U","NORAD_CAT_ID":52459,"ELEMENT_SET_NO":999,"REV_AT_EPOCH":19613,"BSTAR":-0.0010605,"MEAN_MOTION_DOT":-0.00017154,"MEAN_MOTION_DDOT":0},{"OBJECT_NAME":"STARLINK-3900","OBJECT_ID":"2022-049L","EPOCH":"2025-11-22T19:52:25.470048","MEAN_MOTION":15.08826259,"ECCENTRICITY":0.0001468,"INCLINATION":53.2156,"RA_OF_ASC_NODE":168.8423,"ARG_OF_PERICENTER":92.3164,"MEAN_ANOMALY":267.7996,"EPHEMERIS_TYPE":0,"CLASSIFICATION_TYPE":"U","NORAD_CAT_ID":52461,"ELEMENT_SET_NO":999,"REV_AT_EPOCH":19625,"BSTAR":4.3455e-5,"MEAN_MOTION_DOT":4.03e-6,"MEAN_MOTION_DDOT":0},{"OBJECT_NAME":"STARLINK-3903","OBJECT_ID":"2022-049M","EPOCH":"2025-11-22T22:57:55.531008","MEAN_MOTION":15.08832777,"ECCENTRICITY":0.0001343,"INCLINATION":53.2166,"RA_OF_ASC_NODE":178.2718,"ARG_OF_PERICENTER":95.5332,"MEAN_ANOMALY":264.5813,"EPHEMERIS_TYPE":0,"CLASSIFICATION_TYPE":"U","NORAD_CAT_ID":52462,"ELEMENT_SET_NO":999,"REV_AT_EPOCH":19613,"BSTAR":-4.6872e-5,"MEAN_MOTION_DOT":-1.034e-5,"MEAN_MOTION_DDOT":0},{"OBJECT_NAME":"STARLINK-3885","OBJECT_ID":"2022-049N","EPOCH":"2025-11-22T19:47:05.116128","MEAN_MOTION":15.08851285,"ECCENTRICITY":0.0001537,"INCLINATION":53.2152,"RA_OF_ASC_NODE":168.8599,"ARG_OF_PERICENTER":79.1466,"MEAN_ANOMALY":280.9699,"EPHEMERIS_TYPE":0,"CLASSIFICATION_TYPE":"U","NORAD_CAT_ID":52463,"ELEMENT_SET_NO":999,"REV_AT_EPOCH":19625,"BSTAR":0.00021988,"MEAN_MOTION_DOT":3.214e-5,"MEAN_MOTION_DDOT":0},{"OBJECT_NAME":"STARLINK-3904","OBJECT_ID":"2022-049P","EPOCH":"2025-11-22T21:26:26.403360","MEAN_MOTION":15.08848139,"ECCENTRICITY":0.0001524,"INCLINATION":53.2148,"RA_OF_ASC_NODE":178.5463,"ARG_OF_PERICENTER":91.061,"MEAN_ANOMALY":269.0557,"EPHEMERIS_TYPE":0,"CLASSIFICATION_TYPE":"U","NORAD_CAT_ID":52464,"ELEMENT_SET_NO":999,"REV_AT_EPOCH":19612,"BSTAR":0.00014872,"MEAN_MOTION_DOT":2.08e-5,"MEAN_MOTION_DDOT":0},{"OBJECT_NAME":"STARLINK-3863","OBJECT_ID":"2022-049Q","EPOCH":"2025-11-22T21:17:11.239296","MEAN_MOTION":15.08837655,"ECCENTRICITY":0.0001307,"INCLINATION":53.2161,"RA_OF_ASC_NODE":168.5792,"ARG_OF_PERICENTER":92.2346,"MEAN_ANOMALY":267.8796,"EPHEMERIS_TYPE":0,"CLASSIFICATION_TYPE":"U","NORAD_CAT_ID":52465,"ELEMENT_SET_NO":999,"REV_AT_EPOCH":19626,"BSTAR":4.0107e-5,"MEAN_MOTION_DOT":3.5e-6,"MEAN_MOTION_DDOT":0},{"OBJECT_NAME":"STARLINK-3873","OBJECT_ID":"2022-049S","EPOCH":"2025-11-22T19:40:27.956064","MEAN_MOTION":15.08842129,"ECCENTRICITY":0.0001325,"INCLINATION":53.2161,"RA_OF_ASC_NODE":178.8785,"ARG_OF_PERICENTER":91.2337,"MEAN_ANOMALY":268.8807,"EPHEMERIS_TYPE":0,"CLASSIFICATION_TYPE":"U","NORAD_CAT_ID":52467,"ELEMENT_SET_NO":999,"REV_AT_EPOCH":19611,"BSTAR":8.1922e-5,"MEAN_MOTION_DOT":1.016e-5,"MEAN_MOTION_DDOT":0},{"OBJECT_NAME":"STARLINK-3864","OBJECT_ID":"2022-049T","EPOCH":"2025-11-22T20:54:39.564000","MEAN_MOTION":15.08837498,"ECCENTRICITY":0.0001561,"INCLINATION":53.2167,"RA_OF_ASC_NODE":178.6429,"ARG_OF_PERICENTER":101.054,"MEAN_ANOMALY":259.0627,"EPHEMERIS_TYPE":0,"CLASSIFICATION_TYPE":"U","NORAD_CAT_ID":52468,"ELEMENT_SET_NO":999,"REV_AT_EPOCH":19612,"BSTAR":1.4238e-5,"MEAN_MOTION_DOT":-6.1e-7,"MEAN_MOTION_DDOT":0},{"OBJECT_NAME":"STARLINK-3828","OBJECT_ID":"2022-049U","EPOCH":"2025-11-22T19:29:52.823616","MEAN_MOTION":15.0884053,"ECCENTRICITY":0.0001673,"INCLINATION":53.2176,"RA_OF_ASC_NODE":178.9118,"ARG_OF_PERICENTER":95.1895,"MEAN_ANOMALY":264.9288,"EPHEMERIS_TYPE":0,"CLASSIFICATION_TYPE":"U","NORAD_CAT_ID":52469,"ELEMENT_SET_NO":999,"REV_AT_EPOCH":19611,"BSTAR":-1.7579e-5,"MEAN_MOTION_DOT":-5.68e-6,"MEAN_MOTION_DDOT":0},{"OBJECT_NAME":"STARLINK-3859","OBJECT_ID":"2022-049V","EPOCH":"2025-11-22T22:19:27.084576","MEAN_MOTION":15.08825702,"ECCENTRICITY":0.0001863,"INCLINATION":53.2173,"RA_OF_ASC_NODE":178.3801,"ARG_OF_PERICENTER":80.1596,"MEAN_ANOMALY":279.9607,"EPHEMERIS_TYPE":0,"CLASSIFICATION_TYPE":"U","NORAD_CAT_ID":52470,"ELEMENT_SET_NO":999,"REV_AT_EPOCH":19613,"BSTAR":0.00013894,"MEAN_MOTION_DOT":1.923e-5,"MEAN_MOTION_DDOT":0},{"OBJECT_NAME":"STARLINK-3862","OBJECT_ID":"2022-049W","EPOCH":"2025-11-22T21:01:20.162784","MEAN_MOTION":15.08839931,"ECCENTRICITY":0.0001473,"INCLINATION":53.2161,"RA_OF_ASC_NODE":178.637,"ARG_OF_PERICENTER":99.3984,"MEAN_ANOMALY":260.7174,"EPHEMERIS_TYPE":0,"CLASSIFICATION_TYPE":"U","NORAD_CAT_ID":52471,"ELEMENT_SET_NO":999,"REV_AT_EPOCH":19612,"BSTAR":-3.1277e-6,"MEAN_MOTION_DOT":-3.38e-6,"MEAN_MOTION_DDOT":0},{"OBJECT_NAME":"STARLINK-3881","OBJECT_ID":"2022-049X","EPOCH":"2025-11-22T20:38:47.208768","MEAN_MOTION":15.08821909,"ECCENTRICITY":0.0001574,"INCLINATION":53.2145,"RA_OF_ASC_NODE":178.6973,"ARG_OF_PERICENTER":111.3788,"MEAN_ANOMALY":248.7372,"EPHEMERIS_TYPE":0,"CLASSIFICATION_TYPE":"U","NORAD_CAT_ID":52472,"ELEMENT_SET_NO":999,"REV_AT_EPOCH":19612,"BSTAR":-0.00010548,"MEAN_MOTION_DOT":-1.965e-5,"MEAN_MOTION_DDOT":0},{"OBJECT_NAME":"STARLINK-3879","OBJECT_ID":"2022-049Y","EPOCH":"2025-11-22T20:49:22.679904","MEAN_MOTION":15.08830065,"ECCENTRICITY":0.0001777,"INCLINATION":53.2172,"RA_OF_ASC_NODE":178.6597,"ARG_OF_PERICENTER":85.4614,"MEAN_ANOMALY":274.6582,"EPHEMERIS_TYPE":0,"CLASSIFICATION_TYPE":"U","NORAD_CAT_ID":52473,"ELEMENT_SET_NO":999,"REV_AT_EPOCH":19612,"BSTAR":7.9362e-7,"MEAN_MOTION_DOT":-2.75e-6,"MEAN_MOTION_DDOT":0},{"OBJECT_NAME":"STARLINK-3855","OBJECT_ID":"2022-049Z","EPOCH":"2025-11-22T21:07:57.812736","MEAN_MOTION":15.08835287,"ECCENTRICITY":0.0001472,"INCLINATION":53.2145,"RA_OF_ASC_NODE":168.6155,"ARG_OF_PERICENTER":87.3865,"MEAN_ANOMALY":272.7296,"EPHEMERIS_TYPE":0,"CLASSIFICATION_TYPE":"U","NORAD_CAT_ID":52474,"ELEMENT_SET_NO":999,"REV_AT_EPOCH":19626,"BSTAR":0.00014626,"MEAN_MOTION_DOT":2.04e-5,"MEAN_MOTION_DDOT":0},{"OBJECT_NAME":"STARLINK-3882","OBJECT_ID":"2022-049AA","EPOCH":"2025-11-22T22:45:59.219712","MEAN_MOTION":15.08849119,"ECCENTRICITY":0.0001272,"INCLINATION":53.2159,"RA_OF_ASC_NODE":178.5213,"ARG_OF_PERICENTER":95.4592,"MEAN_ANOMALY":264.6546,"EPHEMERIS_TYPE":0,"CLASSIFICATION_TYPE":"U","NORAD_CAT_ID":52475,"ELEMENT_SET_NO":999,"REV_AT_EPOCH":19613,"BSTAR":0.00010798,"MEAN_MOTION_DOT":1.431e-5,"MEAN_MOTION_DDOT":0},{"OBJECT_NAME":"STARLINK-3835","OBJECT_ID":"2022-049AB","EPOCH":"2025-11-22T19:59:07.314720","MEAN_MOTION":15.08839805,"ECCENTRICITY":0.000201,"INCLINATION":53.2159,"RA_OF_ASC_NODE":169.0648,"ARG_OF_PERICENTER":81.2493,"MEAN_ANOMALY":278.8727,"EPHEMERIS_TYPE":0,"CLASSIFICATION_TYPE":"U","NORAD_CAT_ID":52476,"ELEMENT_SET_NO":999,"REV_AT_EPOCH":19749,"BSTAR":4.6697e-5,"MEAN_MOTION_DOT":4.55e-6,"MEAN_MOTION_DDOT":0},{"OBJECT_NAME":"STARLINK-3860","OBJECT_ID":"2022-049AC","EPOCH":"2025-11-22T21:11:53.427264","MEAN_MOTION":15.08854401,"ECCENTRICITY":0.00015,"INCLINATION":53.2142,"RA_OF_ASC_NODE":168.594,"ARG_OF_PERICENTER":82.2253,"MEAN_ANOMALY":277.8909,"EPHEMERIS_TYPE":0,"CLASSIFICATION_TYPE":"U","NORAD_CAT_ID":52477,"ELEMENT_SET_NO":999,"REV_AT_EPOCH":19750,"BSTAR":0.00017972,"MEAN_MOTION_DOT":2.575e-5,"MEAN_MOTION_DDOT":0},{"OBJECT_NAME":"STARLINK-3825","OBJECT_ID":"2022-049AD","EPOCH":"2025-11-22T23:38:56.806944","MEAN_MOTION":15.08828646,"ECCENTRICITY":0.0001771,"INCLINATION":53.2176,"RA_OF_ASC_NODE":178.1354,"ARG_OF_PERICENTER":74.9067,"MEAN_ANOMALY":285.2121,"EPHEMERIS_TYPE":0,"CLASSIFICATION_TYPE":"U","NORAD_CAT_ID":52478,"ELEMENT_SET_NO":999,"REV_AT_EPOCH":19738,"BSTAR":7.927e-5,"MEAN_MOTION_DOT":9.73e-6,"MEAN_MOTION_DDOT":0},{"OBJECT_NAME":"STARLINK-3878","OBJECT_ID":"2022-049AE","EPOCH":"2025-11-22T19:15:18.072864","MEAN_MOTION":15.08836124,"ECCENTRICITY":0.0001331,"INCLINATION":53.2163,"RA_OF_ASC_NODE":168.9553,"ARG_OF_PERICENTER":91.4024,"MEAN_ANOMALY":268.712,"EPHEMERIS_TYPE":0,"CLASSIFICATION_TYPE":"U","NORAD_CAT_ID":52479,"ELEMENT_SET_NO":999,"REV_AT_EPOCH":19749,"BSTAR":9.1808e-6,"MEAN_MOTION_DOT":-1.42e-6,"MEAN_MOTION_DDOT":0},{"OBJECT_NAME":"STARLINK-3839","OBJECT_ID":"2022-049AF","EPOCH":"2025-11-22T21:58:15.473568","MEAN_MOTION":15.08837324,"ECCENTRICITY":0.0001597,"INCLINATION":53.2162,"RA_OF_ASC_NODE":178.4515,"ARG_OF_PERICENTER":83.5532,"MEAN_ANOMALY":276.5642,"EPHEMERIS_TYPE":0,"CLASSIFICATION_TYPE":"U","NORAD_CAT_ID":52480,"ELEMENT_SET_NO":999,"REV_AT_EPOCH":19613,"BSTAR":2.4835e-5,"MEAN_MOTION_DOT":1.07e-6,"MEAN_MOTION_DDOT":0},{"OBJECT_NAME":"STARLINK-3813","OBJECT_ID":"2022-049AH","EPOCH":"2025-11-22T22:15:28.452960","MEAN_MOTION":15.08836368,"ECCENTRICITY":0.0001679,"INCLINATION":53.2156,"RA_OF_ASC_NODE":168.395,"ARG_OF_PERICENTER":85.5373,"MEAN_ANOMALY":274.5811,"EPHEMERIS_TYPE":0,"CLASSIFICATION_TYPE":"U","NORAD_CAT_ID":52482,"ELEMENT_SET_NO":999,"REV_AT_EPOCH":19627,"BSTAR":5.9989e-5,"MEAN_MOTION_DOT":6.67e-6,"MEAN_MOTION_DDOT":0}]
